STARLINK-1007           
1 44713C 19074A   21343.44339245 -.00044715  00000-0 -29975-2 0  3437
2 44713  53.0508 310.4502 0002204  56.5070 164.2186 15.06423166    11
STARLINK-1008           
1 44714C 19074B   21343.42100000 -.00017086  00000-0 -11453-2 0  3434
2 44714  53.0543 310.5385 0001994  58.6265 155.4740 15.06399422    10
STARLINK-1009           
1 44715C 19074C   21343.40990438  .00008796  00000-0  58949-3 0  3433
2 44715  53.0537 310.5872 0001918  61.3174 152.5648 15.06380186    13
STARLINK-1010           
1 44716C 19074D   21343.42847741  .00008900  00000-0  59619-3 0  3436
2 44716  53.0560 310.5033 0002107  64.4056 150.2763 15.06394414    15
STARLINK-1011           
1 44717C 19074E   21343.46301777  .00016432  00000-0  11012-2 0  3438
2 44717  53.0543 330.3410 0002001  54.5165 357.5655 15.06373042    16
STARLINK-1012           
1 44718C 19074F   21343.46805501  .00005840  00000-0  39136-3 0  3432
2 44718  53.0538 310.3264 0002016  53.5563 175.8406 15.06382787    14
STARLINK-1013           
1 44719C 19074G   21343.40643700  .00008474  00000-0  56770-3 0  3437
2 44719  53.0547 310.5948 0001647  59.7572 155.2987 15.06392311    13
STARLINK-1014           
1 44720C 19074H   21343.42483988  .00009228  00000-0  61820-3 0  3431
2 44720  53.0533 310.5198 0002020  55.3957 159.5175 15.06395721    16
STARLINK-1015           
1 44721C 19074J   21343.45389779 -.00010364  00000-0 -69455-3 0  3435
2 44721  53.0529 310.3762 0001927  54.8442  17.7778 15.06399359    10
STARLINK-1016           
1 44722C 19074K   21343.41737731  .00009244  00000-0  61942-3 0  3433
2 44722  53.0538 310.5512 0002415  44.6806 169.7542 15.06385249    10
STARLINK-1017           
1 44723C 19074L   21343.43245705  .00008651  00000-0  57960-3 0  3437
2 44723  53.0558 310.4927 0002087  59.1623 157.0814 15.06390715    11
STARLINK-1019           
1 44724C 19074M   21343.46423925  .00012371  00000-0  82910-3 0  3430
2 44724  53.0545 310.3392 0001916  60.4856 168.2271 15.06374716    10
STARLINK-1020           
1 44725C 19074N   21343.46702048 -.00015238  00000-0 -10212-2 0  3439
2 44725  53.0536 330.3235 0001728  63.1332 150.6944 15.06405746    19
STARLINK-1021           
1 44726C 19074P   21343.46023833  .00004541  00000-0  30438-3 0  3434
2 44726  53.0544 310.3711 0001861  64.3427 162.6800 15.06377939    18
STARLINK-1022           
1 44727C 19074Q   21343.46378270  .00007656  00000-0  51305-3 0  3439
2 44727  53.0630 350.3146 0001725  57.3248 348.9288 15.06385095    14
STARLINK-1023           
1 44728C 19074R   21343.34295080  .00066176  00000-0  20421-3 0  3431
2 44728  53.0501 253.8940 0001104  83.0860 228.6400 15.90950131    10
STARLINK-1024           
1 44729C 19074S   21343.44443549  .00006639  00000-0  42143-3 0  3431
2 44729  53.0012 326.6588 0001952  62.0305 143.5955 15.08377840    16
STARLINK-1026           
1 44731C 19074U   21343.47195185  .00004620  00000-0  30944-3 0  3431
2 44731  53.0525 310.3078 0002099  52.1220 178.4540 15.06401177    17
STARLINK-1027           
1 44732C 19074V   21343.45450423 -.00004622  00000-0 -30986-3 0  3439
2 44732  53.0534 330.3864 0001804  62.4046 143.5029 15.06384250    13
STARLINK-1028           
1 44733C 19074W   21343.47085757  .00005623  00000-0  37685-3 0  3439
2 44733  53.0548 310.3185 0001919  49.6953 254.9591 15.06382777    17
STARLINK-1029           
1 44734C 19074X   21343.45230911  .00002073  00000-0  13892-3 0  3432
2 44734  53.0542 230.3781 0002220  63.1727  60.8175 15.06381188    18
STARLINK-1030           
1 44735C 19074Y   21343.46336762 -.00013026  00000-0 -87297-3 0  3437
2 44735  53.0525 330.3559 0001885  56.6021 157.4137 15.06401465    16
STARLINK-1031           
1 44736C 19074Z   21343.46525151  .00034654  00000-0  23231-2 0  3435
2 44736  53.0544 330.3359 0001846  58.9187  85.3223 15.06343551    17
STARLINK-1032           
1 44737C 19074AA  21343.45921953  .00009010  00000-0  60365-3 0  3433
2 44737  53.0548 330.3736 0001891  55.4639 355.9500 15.06392549    10
STARLINK-1033           
1 44738C 19074BA  21343.46442090  .00009364  00000-0  62761-3 0  3439
2 44738  53.0535 330.3309 0001919  61.2387  98.4887 15.06375490    12
STARLINK-1035           
1 44740C 19074AD  21343.47289478 -.00004520  00000-0 -30295-3 0  3430
2 44740  53.0545 330.3000 0001823  64.8576  80.8202 15.06389988    10
STARLINK-1036           
1 44741C 19074AE  21343.42864682  .00008833  00000-0  59196-3 0  3432
2 44741  53.0544 330.5012 0001836  56.1087 149.4869 15.06381038    19
STARLINK-1038           
1 44743C 19074AG  21343.46075414  .00019039  00000-0  12760-2 0  3430
2 44743  53.0540 350.3528 0001718  62.9414  46.8674 15.06367340    11
STARLINK-1039           
1 44744C 19074AH  21343.47220477  .00021529  00000-0  14430-2 0  3436
2 44744  53.0544 350.3025 0001797  58.4355  53.5087 15.06363678    12
STARLINK-1041           
1 44746C 19074AK  21343.46614456 -.00064570  00000-0 -43199-2 0  3430
2 44746  53.0551 350.3266 0001904  67.2036  91.6221 15.06517075    18
STARLINK-1042           
1 44747C 19074AL  21343.42789596  .00020413  00000-0  13686-2 0  3439
2 44747  53.0539 350.5008 0001634  63.0097  88.5431 15.06354688    19
STARLINK-1043           
1 44748C 19074AM  21343.45884501 -.00015631  00000-0 -10474-2 0  3435
2 44748  53.0545 350.3617 0001902  49.2241 110.2324 15.06410672    16
STARLINK-1046           
1 44751C 19074AQ  21343.46458392  .00016671  00000-0  11173-2 0  3435
2 44751  53.0543 350.3399 0001907  59.9248  50.6614 15.06369499    14
STARLINK-1047           
1 44752C 19074AR  21343.43767344  .00011826  00000-0  79257-3 0  3438
2 44752  53.0544 330.4537 0002101  45.1506 169.4173 15.06375501    10
STARLINK-1048           
1 44753C 19074AS  21343.44446745  .00025679  00000-0  17215-2 0  3435
2 44753  53.0538 310.4306 0002080  52.6562 168.8084 15.06351318    11
STARLINK-1049           
1 44754C 19074AT  21343.44843520  .00007055  00000-0  47268-3 0  3438
2 44754  53.0550 310.4190 0002121  58.1520 164.8032 15.06392098    17
STARLINK-1050           
1 44755C 19074AU  21343.41078838  .00006063  00000-0  40632-3 0  3434
2 44755  53.0510 350.6051 0001688  51.3825  52.4539 15.06385026    13
STARLINK-1051           
1 44756C 19074AV  21343.46294038  .00133884  00000-0  41336-3 0  3436
2 44756  53.0472 219.8484 0000973 116.8857  21.3261 15.90872696    19
STARLINK-1034           
1 44757C 19074AW  21343.44862308 -.00012499  00000-0 -83762-3 0  3435
2 44757  53.0556 330.4057 0002056  53.7456 160.2164 15.06403981    16
STARLINK-1053           
1 44758C 19074AX  21343.44609587  .00008401  00000-0  56303-3 0  3431
2 44758  53.0556 350.4155 0001676  54.4014 100.9491 15.06380080    11
STARLINK-1054           
1 44759C 19074AY  21343.42933160  .00025924  00000-0  17380-2 0  3437
2 44759  53.0544 350.4989 0001883  60.2718  59.0699 15.06349433    11
STARLINK-1055           
1 44760C 19074AZ  21343.46703556  .00027635  00000-0  18523-2 0  3438
2 44760  53.0539 350.3240 0001793  63.0076 340.8949 15.06356630    10
STARLINK-1056           
1 44761C 19074BA  21343.43183752  .00006759  00000-0  45289-3 0  3430
2 44761  53.0541 350.4889 0001590  57.6901  95.1911 15.06388854    17
STARLINK-1057           
1 44762C 19074BB  21343.44497582  .00010520  00000-0  70510-3 0  3437
2 44762  53.0541 330.4240 0001928  49.2232 164.9768 15.06372855    15
STARLINK-1058           
1 44763C 19074BC  21343.45520612  .00009090  00000-0  60904-3 0  3436
2 44763  53.0551 350.3904 0001691  57.2782 102.3966 15.06390767    19
STARLINK-1059           
1 44764C 19074BD  21343.44132156  .00026154  00000-0  17534-2 0  3438
2 44764  53.0546 330.4433 0001656  65.4993 148.9005 15.06349686    10
STARLINK-1060           
1 44765C 19074BE  21343.45884560  .00008270  00000-0  55404-3 0  3431
2 44765  53.0536 330.3607 0001584  66.0628 143.3823 15.06392944    16
STARLINK-1061           
1 44766C 19074BF  21343.44654068  .00008701  00000-0  58315-3 0  3432
2 44766  53.0533 350.4105 0001427  65.8489  86.8529 15.06377675    16
STARLINK-1062           
1 44767C 19074BG  21343.43939750  .00007500  00000-0  50264-3 0  3437
2 44767  53.0536 350.4487 0001587  55.8231  98.1108 15.06381600    16
STARLINK-1063           
1 44768C 19074BH  21343.46248778 -.00007439  00000-0 -49837-3 0  3431
2 44768  53.0541 350.3465 0001819  58.7861 100.3689 15.06409930    14
STARLINK-1064           
1 44769C 19074BJ  21343.47129858  .00176302  00000-0  21620-2 0  3433
2 44769  53.0547 314.1769 0001626  40.7236 191.0347 15.59521781    14
STARLINK-1067           
1 44771C 19074BL  21343.45017335  .00008852  00000-0  59303-3 0  3434
2 44771  53.0540 350.4049 0001805  59.4730  92.8740 15.06393808    13
STARLINK-1068           
1 44772C 19074BM  21343.45068907 -.00000757  00000-0 -50715-4 0  3433
2 44772  53.0543 330.4039 0001968  58.9956 146.2013 15.06383555    13
STARLINK-1073           
1 44914C 20001A   21343.44826493 -.00001926  00000-0 -12911-3 0  3438
2 44914  53.0526 110.4165 0001650  98.2402   3.8581 15.06387263    17
STARLINK-1084           
1 44915C 20001B   21343.44480495 -.00004043  00000-0 -27101-3 0  3437
2 44915  53.0522 110.4315 0001302  92.4371 190.8265 15.06390470    16
STARLINK-1097           
1 44916C 20001C   21338.50891139  .00865095  00000-0  23522-2 0  3386
2 44916  53.0506  74.0805 0003464  27.5377  40.3350 15.92575843    12
STARLINK-1098           
1 44917C 20001D   21343.44864314 -.00004179  00000-0 -28004-3 0  3438
2 44917  53.0526 110.4188 0001220 103.4650 180.5963 15.06396164    19
STARLINK-1099           
1 44918C 20001E   21343.46007148 -.00003268  00000-0 -21908-3 0  3439
2 44918  53.0535 110.3723 0001363  99.0216 187.1128 15.06382564    15
STARLINK-1102           
1 44920C 20001G   21343.44043862 -.00001755  00000-0 -11754-3 0  3430
2 44920  53.0531 110.4502 0001620  93.8822   5.6823 15.06406788    12
